ONEWEB-0707             
1 61612U 24188U   25166.24469101 -.00000387  00000+0 -11460-2 0  9999
2 61612  87.8814 109.4098 0002668  76.9216 283.2209 13.10371200 33301
ONEWEB-0708             
1 61613U 24188V   25166.26294232 -.00000465  00000+0 -13693-2 0  9990
2 61613  87.8876 109.4120 0002617  65.8100 294.3300 13.10374955 33517
